SAR-LUPE 2              
1 31797U 07030A   26199.80401456  .00022168  00000+0  34238-3 0  9993
2 31797  98.1066 308.2727 0004941 208.1530 151.9455 15.54134505 61847
SAPPHIRE                
1 39088U 13009C   26199.81236845  .00000028  00000+0  24761-4 0  9998
2 39088  98.4278  18.5196 0011801 149.6330 210.5541 14.35248108701119
PRAETORIAN SDA_602      
1 65565U 25203A   26199.83333440  .00000067  00000+0  49477-4 0  9991
2 65565  81.3048 341.4686 0007121 109.3393 250.8534 13.83888337 43077
PRAETORIAN SDA_603      
1 65566U 25203B   26199.78913022  .00000118  00000+0  95495-4 0  9994
2 65566  81.3053 341.4314 0010771 106.0365 254.1978 13.83962308 43070
PRAETORIAN SDA_604      
1 65567U 25203C   26199.82906304  .00000062  00000+0  45734-4 0  9994
2 65567  81.3071 341.8557 0006633 113.0523 247.1333 13.83050461 43053
PRAETORIAN SDA_605      
1 65568U 25203D   26199.78835791  .00000064  00000+0  47439-4 0  9997
2 65568  81.3035 341.5317 0009365 104.7819 255.4375 13.83200454 43063
PRAETORIAN SDA_606      
1 65569U 25203E   26199.77353216  .00000034  00000+0  20156-4 0  9998
2 65569  81.3072 341.7849 0007242 107.9909 252.2037 13.83200185 43054
PRAETORIAN SDA_607      
1 65570U 25203F   26199.83475375  .00000108  00000+0  86929-4 0  9990
2 65570  81.3057 341.3447 0010024 105.8373 254.3889 13.83758990 43086
PRAETORIAN SDA_608      
1 65571U 25203G   26199.74481461  .00000050  00000+0  34081-4 0  9992
2 65571  81.3025 341.5899 0007129 111.9966 248.1948 13.83819702 43056
PRAETORIAN SDA_609      
1 65572U 25203H   26199.81307153  .00000103  00000+0  82047-4 0  9990
2 65572  81.3073 341.5031 0007981 106.0688 254.1348 13.84211787 43073
PRAETORIAN SDA_610      
1 65573U 25203J   26199.79977700  .00000079  00000+0  60554-4 0  9990
2 65573  81.3026 341.5039 0007867 111.3302 248.8695 13.83528644 43061
PRAETORIAN SDA_611      
1 65574U 25203K   26199.80925399  .00000145  00000+0  12152-3 0  9994
2 65574  81.3034 341.6788 0006756 115.8961 244.2892 13.83311203 43058
PRAETORIAN SDA_612      
1 65575U 25203L   26199.83164796  .00000181  00000+0  14939-3 0  9999
2 65575  81.3051 341.1671 0010416 106.0153 254.2152 13.85041571 43091
PRAETORIAN SDA_613      
1 65576U 25203M   26199.82842260  .00000062  00000+0  46283-4 0  9994
2 65576  81.3017 341.6828 0006820 106.8492 253.3412 13.82768069 43051
PRAETORIAN SDA_614      
1 65577U 25203N   26199.82680382  .00000045  00000+0  29654-4 0  9994
2 65577  81.3032 341.2571 0008268 104.7376 255.4697 13.84778823 43099
PRAETORIAN SDA_615      
1 65578U 25203P   26199.81147493  .00000083  00000+0  63030-4 0  9993
2 65578  81.3042 341.2549 0010290 104.8606 255.3692 13.84438669 43085
PRAETORIAN SDA_616      
1 65579U 25203Q   26199.80940946  .00000095  00000+0  75744-4 0  9995
2 65579  81.3085 341.8451 0006679 113.7412 246.4445 13.83270359 43054
PRAETORIAN SDA_617      
1 65580U 25203R   26199.83371102  .00000058  00000+0  41846-4 0  9997
2 65580  81.3055 341.6509 0008512 105.0621 255.1477 13.83152493 43060
PRAETORIAN SDA_618      
1 65581U 25203S   26199.77937528  .00000217  00000+0  18338-3 0  9997
2 65581  81.3042 341.2180 0010878 108.2494 251.9847 13.84226018 43082
PRAETORIAN SDA_619      
1 65582U 25203T   26199.82787161  .00000100  00000+0  79095-4 0  9999
2 65582  81.3062 341.5047 0009343 105.6896 254.5292 13.83806088 43704
PRAETORIAN SDA_620      
1 65583U 25203U   26199.79220535  .00000114  00000+0  93320-4 0  9995
2 65583  81.3049 341.5736 0008624 102.6550 257.5571 13.83207834 43066
PRAETORIAN SDA_621      
1 65584U 25203V   26199.82971356  .00000061  00000+0  44028-4 0  9996
2 65584  81.3038 341.4343 0008512 100.3080 259.9037 13.83804184 43072
PRAETORIAN SDA_601      
1 65585U 25203W   26199.81483019  .00000102  00000+0  82451-4 0  9998
2 65585  81.3064 341.7804 0006668 116.3564 243.8277 13.83170710 43058
VICTUS HAZE PUMA        
1 69646U 26142A   26198.28484869  .00002209  00000+0  10157-3 0  9990
2 69646  97.4460  95.5636 0026410 259.4735 100.3525 15.21130484  4240
